start=new Date('2023-05-17T00:00:00.000Z').valueOf();
sats=[{"MEAN_MOTION":"15.08841846","APOAPSIS":"540.558","OBJECT_ID":"2022-076BA","EPOCH":"2023-05-16T21:56:05.747424","FILE":"3909742","MEAN_MOTION_DOT":"-0.00000525","RA_OF_ASC_NODE":"7.9843","OBJECT_TYPE":"PAYLOAD","SITE":"AFETR","REV_AT_EPOCH":"4796","EPHEMERIS_TYPE":"0","LAUNCH_DATE":"2022-07-07","CENTER_NAME":"EARTH","ECCENTRICITY":"0.00011830","SEMIMAJOR_AXIS":"6917.875","NORAD_CAT_ID":"53034","INCLINATION":"53.2176","BSTAR":"-0.00001493300000","TLE_LINE1":"1 53034U 22076BA  23136.91395541 -.00000525  00000-0 -14933-4 0  9992","PERIAPSIS":"538.921","GP_ID":"231999792","CLASSIFICATION_TYPE":"U","DECAY_DATE":null,"RCS_SIZE":"LARGE","ELEMENT_SET_NO":"999","PERIOD":"95.437","REF_FRAME":"TEME","MEAN_ELEMENT_THEORY":"SGP4","TIME_SYSTEM":"UTC","MEAN_MOTION_DDOT":"0.0000000000000","OBJECT_NAME":"STARLINK-4151","COUNTRY_CODE":"US","MEAN_ANOMALY":"249.3525","TLE_LINE2":"2 53034  53.2176   7.9843 0001183 110.7594 249.3525 15.08841846 47963","ARG_OF_PERICENTER":"110.7594"},{"RCS_SIZE":"LARGE","DECAY_DATE":null,"CLASSIFICATION_TYPE":"U","PERIOD":"95.437","ELEMENT_SET_NO":"999","TIME_SYSTEM":"UTC","MEAN_ELEMENT_THEORY":"SGP4","REF_FRAME":"TEME","OBJECT_NAME":"STARLINK-4157","MEAN_MOTION_DDOT":"0.0000000000000","COUNTRY_CODE":"US","TLE_LINE2":"2 53035  53.2162   8.0349 0001178  79.5951 280.5174 15.08847362 47961","MEAN_ANOMALY":"280.5174","ARG_OF_PERICENTER":"79.5951","EPOCH":"2023-05-16T21:40:11.565696","FILE":"3909742","OBJECT_ID":"2022-076BB","APOAPSIS":"540.538","MEAN_MOTION":"15.08847362","REV_AT_EPOCH":"4796","SITE":"AFETR","OBJECT_TYPE":"PAYLOAD","RA_OF_ASC_NODE":"8.0349","MEAN_MOTION_DOT":"0.00005550","EPHEMERIS_TYPE":"0","ECCENTRICITY":"0.00011780","CENTER_NAME":"EARTH","LAUNCH_DATE":"2022-07-07","NORAD_CAT_ID":"53035","SEMIMAJOR_AXIS":"6917.858","TLE_LINE1":"1 53035U 22076BB  23136.90291164  .00005550  00000-0  36644-3 0  9991","PERIAPSIS":"538.908","BSTAR":"0.00036644000000","INCLINATION":"53.2162","GP_ID":"231998541"},{"OBJECT_ID":"2022-076BC","APOAPSIS":"540.525","EPOCH":"2023-05-16T21:34:54.145920","FILE":"3909742","MEAN_MOTION":"15.08838767","SITE":"AFETR","REV_AT_EPOCH":"4796","MEAN_MOTION_DOT":"0.00000433","OBJECT_TYPE":"PAYLOAD","RA_OF_ASC_NODE":"8.0469","EPHEMERIS_TYPE":"0","ECCENTRICITY":"0.00011210","LAUNCH_DATE":"2022-07-07","CENTER_NAME":"EARTH","NORAD_CAT_ID":"53036","SEMIMAJOR_AXIS":"6917.884","PERIAPSIS":"538.974","TLE_LINE1":"1 53036U 22076BC  23136.89923780  .00000433  00000-0  45312-4 0  9994","INCLINATION":"53.2175","BSTAR":"0.00004531200000","GP_ID":"231998790","DECAY_DATE":null,"RCS_SIZE":"LARGE","CLASSIFICATION_TYPE":"U","ELEMENT_SET_NO":"999","PERIOD":"95.438","TIME_SYSTEM":"UTC","REF_FRAME":"TEME","MEAN_ELEMENT_THEORY":"SGP4","OBJECT_NAME":"STARLINK-4155","MEAN_MOTION_DDOT":"0.0000000000000","COUNTRY_CODE":"US","TLE_LINE2":"2 53036  53.2175   8.0469 0001121  99.5075 260.6043 15.08838767 47969","MEAN_ANOMALY":"260.6043","ARG_OF_PERICENTER":"99.5075"},{"RCS_SIZE":"LARGE","DECAY_DATE":null,"CLASSIFICATION_TYPE":"U","PERIOD":"95.438","ELEMENT_SET_NO":"999","TIME_SYSTEM":"UTC","MEAN_ELEMENT_THEORY":"SGP4","REF_FRAME":"TEME","OBJECT_NAME":"STARLINK-4153","MEAN_MOTION_DDOT":"0.0000000000000","COUNTRY_CODE":"US","TLE_LINE2":"2 53037  53.2168   8.0672 0001228  88.0964 272.0169 15.08837873 47969","MEAN_ANOMALY":"272.0169","ARG_OF_PERICENTER":"88.0964","FILE":"3909742","EPOCH":"2023-05-16T21:29:36.164544","APOAPSIS":"540.601","OBJECT_ID":"2022-076BD","MEAN_MOTION":"15.08837873","REV_AT_EPOCH":"4796","SITE":"AFETR","OBJECT_TYPE":"PAYLOAD","RA_OF_ASC_NODE":"8.0672","MEAN_MOTION_DOT":"0.00001065","EPHEMERIS_TYPE":"0","ECCENTRICITY":"0.00012280","LAUNCH_DATE":"2022-07-07","CENTER_NAME":"EARTH","NORAD_CAT_ID":"53037","SEMIMAJOR_AXIS":"6917.887","PERIAPSIS":"538.902","TLE_LINE1":"1 53037U 22076BD  23136.89555746  .00001065  00000-0  84997-4 0  9992","BSTAR":"0.00008499700000","INCLINATION":"53.2168","GP_ID":"231999542"},{"GP_ID":"231965318","SEMIMAJOR_AXIS":"6917.893","NORAD_CAT_ID":"53038","INCLINATION":"53.2173","BSTAR":"0.00035541000000","PERIAPSIS":"538.736","TLE_LINE1":"1 53038U 22076BE  23136.03075721  .00005372  00000-0  35541-3 0  9994","EPHEMERIS_TYPE":"0","LAUNCH_DATE":"2022-07-07","CENTER_NAME":"EARTH","ECCENTRICITY":"0.00014770","MEAN_MOTION":"15.08835947","APOAPSIS":"540.780","OBJECT_ID":"2022-076BE","EPOCH":"2023-05-16T00:44:17.422944","FILE":"3909472","MEAN_MOTION_DOT":"0.00005372","OBJECT_TYPE":"PAYLOAD","RA_OF_ASC_NODE":"11.9491","SITE":"AFETR","REV_AT_EPOCH":"4783","MEAN_ANOMALY":"265.7353","TLE_LINE2":"2 53038  53.2173  11.9491 0001477  94.3807 265.7353 15.08835947 47830","ARG_OF_PERICENTER":"94.3807","MEAN_MOTION_DDOT":"0.0000000000000","OBJECT_NAME":"STARLINK-4156","COUNTRY_CODE":"US","REF_FRAME":"TEME","MEAN_ELEMENT_THEORY":"SGP4","TIME_SYSTEM":"UTC","CLASSIFICATION_TYPE":"U","DECAY_DATE":null,"RCS_SIZE":"LARGE","ELEMENT_SET_NO":"999","PERIOD":"95.438"},{"NORAD_CAT_ID":"53043","SEMIMAJOR_AXIS":"6941.142","TLE_LINE1":"1 53043U 22077A   23136.46333409  .00000431  00000-0  38138-4 0  9995","PERIAPSIS":"560.438","BSTAR":"0.00003813800000","INCLINATION":"97.6568","GP_ID":"231965568","FILE":"3909472","EPOCH":"2023-05-16T11:07:12.065376","APOAPSIS":"565.576","OBJECT_ID":"2022-077A","MEAN_MOTION":"15.01261663","REV_AT_EPOCH":"4665","SITE":"AFWTR","OBJECT_TYPE":"PAYLOAD","RA_OF_ASC_NODE":"317.9846","MEAN_MOTION_DOT":"0.00000431","EPHEMERIS_TYPE":"0","ECCENTRICITY":"0.00037010","LAUNCH_DATE":"2022-07-11","CENTER_NAME":"EARTH","OBJECT_NAME":"STARLINK-4362","MEAN_MOTION_DDOT":"0.0000000000000","COUNTRY_CODE":"US","TLE_LINE2":"2 53043  97.6568 317.9846 0003701 126.2569 233.8997 15.01261663 46651","MEAN_ANOMALY":"233.8997","ARG_OF_PERICENTER":"126.2569","RCS_SIZE":"LARGE","DECAY_DATE":null,"CLASSIFICATION_TYPE":"U","ELEMENT_SET_NO":"999","PERIOD":"95.919","TIME_SYSTEM":"UTC","MEAN_ELEMENT_THEORY":"SGP4","REF_FRAME":"TEME"},{"REV_AT_EPOCH":"4665","SITE":"AFWTR","OBJECT_TYPE":"PAYLOAD","RA_OF_ASC_NODE":"317.9868","MEAN_MOTION_DOT":"0.00000961","EPOCH":"2023-05-16T11:01:52.263552","FILE":"3909472","APOAPSIS":"565.265","OBJECT_ID":"2022-077B","MEAN_MOTION":"15.01261010","ECCENTRICITY":"0.00032510","CENTER_NAME":"EARTH","LAUNCH_DATE":"2022-07-11","EPHEMERIS_TYPE":"0","TLE_LINE1":"1 53044U 22077B   23136.45963268  .00000961  00000-0  79370-4 0  9998","PERIAPSIS":"560.752","BSTAR":"0.00007937000000","INCLINATION":"97.6581","NORAD_CAT_ID":"53044","SEMIMAJOR_AXIS":"6941.144","GP_ID":"231966314","ELEMENT_SET_NO":"999","PERIOD":"95.919","RCS_SIZE":"LARGE","DECAY_DATE":null,"CLASSIFICATION_TYPE":"U","TIME_SYSTEM":"UTC","MEAN_ELEMENT_THEORY":"SGP4","REF_FRAME":"TEME","COUNTRY_CODE":"US","OBJECT_NAME":"STARLINK-4349","MEAN_MOTION_DDOT":"0.0000000000000","ARG_OF_PERICENTER":"93.2276","TLE_LINE2":"2 53044  97.6581 317.9868 0003251  93.2276 266.9321 15.01261010 46653","MEAN_ANOMALY":"266.9321"},{"TIME_SYSTEM":"UTC","MEAN_ELEMENT_THEORY":"SGP4","REF_FRAME":"TEME","PERIOD":"95.919","ELEMENT_SET_NO":"999","RCS_SIZE":"LARGE","DECAY_DATE":null,"CLASSIFICATION_TYPE":"U","ARG_OF_PERICENTER":"121.2949","TLE_LINE2":"2 53045  97.6565 317.9685 0003316 121.2949 238.8600 15.01261842 46655","MEAN_ANOMALY":"238.8600","COUNTRY_CODE":"US","OBJECT_NAME":"STARLINK-4350","MEAN_MOTION_DDOT":"0.0000000000000","ECCENTRICITY":"0.00033160","CENTER_NAME":"EARTH","LAUNCH_DATE":"2022-07-11","EPHEMERIS_TYPE":"0","REV_AT_EPOCH":"4665","SITE":"AFWTR","RA_OF_ASC_NODE":"317.9685","OBJECT_TYPE":"PAYLOAD","MEAN_MOTION_DOT":"0.00000468","FILE":"3909472","EPOCH":"2023-05-16T11:09:52.107552","OBJECT_ID":"2022-077C","APOAPSIS":"565.308","MEAN_MOTION":"15.01261842","GP_ID":"231966559","PERIAPSIS":"560.704","TLE_LINE1":"1 53045U 22077C   23136.46518643  .00000468  00000-0  41006-4 0  9990","BSTAR":"0.00004100600000","INCLINATION":"97.6565","NORAD_CAT_ID":"53045","SEMIMAJOR_AXIS":"6941.141"},{"GP_ID":"231965818","NORAD_CAT_ID":"53046","SEMIMAJOR_AXIS":"6941.146","TLE_LINE1":"1 53046U 22077D   23136.45778114  .00000959  00000-0  79265-4 0  9994","PERIAPSIS":"560.881","BSTAR":"0.00007926500000","INCLINATION":"97.6638","EPHEMERIS_TYPE":"0","ECCENTRICITY":"0.00030680","CENTER_NAME":"EARTH","LAUNCH_DATE":"2022-07-11","EPOCH":"2023-05-16T10:59:12.290496","FILE":"3909472","OBJECT_ID":"2022-077D","APOAPSIS":"565.141","MEAN_MOTION":"15.01260261","REV_AT_EPOCH":"4665","SITE":"AFWTR","OBJECT_TYPE":"PAYLOAD","RA_OF_ASC_NODE":"317.9955","MEAN_MOTION_DOT":"0.00000959","TLE_LINE2":"2 53046  97.6638 317.9955 0003068  89.4458 270.7118 15.01260261 46654","MEAN_ANOMALY":"270.7118","ARG_OF_PERICENTER":"89.4458","OBJECT_NAME":"STARLINK-4331","MEAN_MOTION_DDOT":"0.0000000000000","COUNTRY_CODE":"US","TIME_SYSTEM":"UTC","MEAN_ELEMENT_THEORY":"SGP4","REF_FRAME":"TEME","RCS_SIZE":"LARGE","DECAY_DATE":null,"CLASSIFICATION_TYPE":"U","ELEMENT_SET_NO":"999","PERIOD":"95.919"},{"TIME_SYSTEM":"UTC","REF_FRAME":"TEME","MEAN_ELEMENT_THEORY":"SGP4","PERIOD":"95.921","ELEMENT_SET_NO":"999","DECAY_DATE":null,"RCS_SIZE":"LARGE","CLASSIFICATION_TYPE":"U","ARG_OF_PERICENTER":"88.9157","TLE_LINE2":"2 53047  97.6574 318.3163 0003131  88.9157 271.2426 15.01240890 46701","MEAN_ANOMALY":"271.2426","COUNTRY_CODE":"US","OBJECT_NAME":"STARLINK-4352","MEAN_MOTION_DDOT":"0.0000000000000","ECCENTRICITY":"0.00031310","CENTER_NAME":"EARTH","LAUNCH_DATE":"2022-07-11","EPHEMERIS_TYPE":"0","SITE":"AFWTR","REV_AT_EPOCH":"4670","MEAN_MOTION_DOT":"-0.00001700","OBJECT_TYPE":"PAYLOAD","RA_OF_ASC_NODE":"318.3163","APOAPSIS":"565.244","OBJECT_ID":"2022-077E","EPOCH":"2023-05-16T18:56:27.869280","FILE":"3909742","MEAN_MOTION":"15.01240890","GP_ID":"231998542","TLE_LINE1":"1 53047U 22077E   23136.78921145 -.00001700  00000-0 -12785-3 0  9995","PERIAPSIS":"560.897","INCLINATION":"97.6574","BSTAR":"-0.00012785000000","NORAD_CAT_ID":"53047","SEMIMAJOR_AXIS":"6941.206"}];
